start=new Date('2022-05-22T00:00:00.000Z').valueOf();
sats=[{"BSTAR":"0.00027656000000","EPHEMERIS_TYPE":"0","ARG_OF_PERICENTER":"63.2209","TLE_LINE1":"1 45061U 20006T   22141.92115448  .00003839  00000-0  27656-3 0  9990","RCS_SIZE":"LARGE","OBJECT_NAME":"STARLINK-1169","LAUNCH_DATE":"2020-01-29","APOAPSIS":"548.338","FILE":"3457577","MEAN_MOTION":"15.06386467","GP_ID":"204190828","REF_FRAME":"TEME","SEMIMAJOR_AXIS":"6925.390","ECCENTRICITY":"0.00015640","NORAD_CAT_ID":"45061","OBJECT_ID":"2020-006T","TIME_SYSTEM":"UTC","PERIOD":"95.593","CLASSIFICATION_TYPE":"U","MEAN_ELEMENT_THEORY":"SGP4","CENTER_NAME":"EARTH","MEAN_MOTION_DOT":"0.00003839","MEAN_ANOMALY":"296.8939","SITE":"AFETR","ELEMENT_SET_NO":"999","PERIAPSIS":"546.172","MEAN_MOTION_DDOT":"0.0000000000000","COUNTRY_CODE":"US","INCLINATION":"53.0561","REV_AT_EPOCH":"12729","DECAY_DATE":null,"TLE_LINE2":"2 45061  53.0561  36.5614 0001564  63.2209 296.8939 15.06386467127294","EPOCH":"2022-05-21T22:06:27.747072","RA_OF_ASC_NODE":"36.5614","OBJECT_TYPE":"PAYLOAD"},{"TLE_LINE2":"2 45062  53.0565  36.6168 0001705  64.7728 295.3437 15.06398512127294","EPOCH":"2022-05-21T21:45:13.919904","RA_OF_ASC_NODE":"36.6168","OBJECT_TYPE":"PAYLOAD","PERIAPSIS":"546.037","MEAN_MOTION_DDOT":"0.0000000000000","COUNTRY_CODE":"US","INCLINATION":"53.0565","REV_AT_EPOCH":"12729","DECAY_DATE":null,"MEAN_ANOMALY":"295.3437","SITE":"AFETR","ELEMENT_SET_NO":"999","MEAN_ELEMENT_THEORY":"SGP4","CENTER_NAME":"EARTH","MEAN_MOTION_DOT":"0.00001273","NORAD_CAT_ID":"45062","TIME_SYSTEM":"UTC","OBJECT_ID":"2020-006U","CLASSIFICATION_TYPE":"U","PERIOD":"95.592","GP_ID":"204190063","REF_FRAME":"TEME","SEMIMAJOR_AXIS":"6925.353","ECCENTRICITY":"0.00017050","TLE_LINE1":"1 45062U 20006U   22141.90641111  .00001273  00000-0  10436-3 0  9998","OBJECT_NAME":"STARLINK-1171","RCS_SIZE":"LARGE","LAUNCH_DATE":"2020-01-29","APOAPSIS":"548.399","MEAN_MOTION":"15.06398512","FILE":"3457577","BSTAR":"0.00010436000000","EPHEMERIS_TYPE":"0","ARG_OF_PERICENTER":"64.7728"},{"NORAD_CAT_ID":"45064","OBJECT_ID":"2020-006W","TIME_SYSTEM":"UTC","PERIOD":"95.592","CLASSIFICATION_TYPE":"U","GP_ID":"204190313","REF_FRAME":"TEME","SEMIMAJOR_AXIS":"6925.342","ECCENTRICITY":"0.00016730","TLE_LINE1":"1 45064U 20006W   22141.91930854 -.00000505  00000-0 -14987-4 0  9991","RCS_SIZE":"LARGE","OBJECT_NAME":"STARLINK-1133","LAUNCH_DATE":"2020-01-29","APOAPSIS":"548.366","MEAN_MOTION":"15.06402007","FILE":"3457577","BSTAR":"-0.00001498700000","EPHEMERIS_TYPE":"0","ARG_OF_PERICENTER":"61.4415","TLE_LINE2":"2 45064  53.0557  16.5695 0001673  61.4415 298.6742 15.06402007127571","EPOCH":"2022-05-21T22:03:48.257856","RA_OF_ASC_NODE":"16.5695","OBJECT_TYPE":"PAYLOAD","PERIAPSIS":"546.049","MEAN_MOTION_DDOT":"0.0000000000000","COUNTRY_CODE":"US","INCLINATION":"53.0557","REV_AT_EPOCH":"12757","DECAY_DATE":null,"MEAN_ANOMALY":"298.6742","SITE":"AFETR","ELEMENT_SET_NO":"999","MEAN_ELEMENT_THEORY":"SGP4","CENTER_NAME":"EARTH","MEAN_MOTION_DOT":"-0.00000505"},{"DECAY_DATE":null,"REV_AT_EPOCH":"12757","INCLINATION":"53.0556","COUNTRY_CODE":"US","MEAN_MOTION_DDOT":"0.0000000000000","PERIAPSIS":"546.203","OBJECT_TYPE":"PAYLOAD","RA_OF_ASC_NODE":"16.5518","EPOCH":"2022-05-21T22:09:06.649632","TLE_LINE2":"2 45065  53.0556  16.5518 0001464  63.8925 296.2214 15.06398956127570","MEAN_MOTION_DOT":"0.00001558","CENTER_NAME":"EARTH","MEAN_ELEMENT_THEORY":"SGP4","ELEMENT_SET_NO":"999","SITE":"AFETR","MEAN_ANOMALY":"296.2214","ECCENTRICITY":"0.00014640","SEMIMAJOR_AXIS":"6925.352","REF_FRAME":"TEME","GP_ID":"204190578","PERIOD":"95.592","CLASSIFICATION_TYPE":"U","OBJECT_ID":"2020-006X","NORAD_CAT_ID":"45065","TIME_SYSTEM":"UTC","ARG_OF_PERICENTER":"63.8925","EPHEMERIS_TYPE":"0","BSTAR":"0.00012349000000","MEAN_MOTION":"15.06398956","FILE":"3457577","APOAPSIS":"548.231","LAUNCH_DATE":"2020-01-29","OBJECT_NAME":"STARLINK-1139","RCS_SIZE":"LARGE","TLE_LINE1":"1 45065U 20006X   22141.92299363  .00001558  00000-0  12349-3 0  9992"},{"MEAN_ANOMALY":"243.9497","SITE":"AFETR","ELEMENT_SET_NO":"999","MEAN_ELEMENT_THEORY":"SGP4","CENTER_NAME":"EARTH","MEAN_MOTION_DOT":"-0.00043734","TLE_LINE2":"2 45066  53.0556  20.5370 0002026 116.1701 243.9497 15.06032398127433","RA_OF_ASC_NODE":"20.5370","EPOCH":"2022-05-21T00:50:22.109568","OBJECT_TYPE":"PAYLOAD","MEAN_MOTION_DDOT":"0.0000000000000","PERIAPSIS":"546.937","INCLINATION":"53.0556","COUNTRY_CODE":"US","DECAY_DATE":null,"REV_AT_EPOCH":"12743","TLE_LINE1":"1 45066U 20006Y   22141.03497812 -.00043734  00000-0 -29645-2 0  9994","RCS_SIZE":"LARGE","OBJECT_NAME":"STARLINK-1145","LAUNCH_DATE":"2020-01-29","FILE":"3456458","MEAN_MOTION":"15.06032398","APOAPSIS":"549.744","EPHEMERIS_TYPE":"0","BSTAR":"-0.00296450000000","ARG_OF_PERICENTER":"116.1701","TIME_SYSTEM":"UTC","NORAD_CAT_ID":"45066","OBJECT_ID":"2020-006Y","PERIOD":"95.615","CLASSIFICATION_TYPE":"U","GP_ID":"204114096","SEMIMAJOR_AXIS":"6926.475","REF_FRAME":"TEME","ECCENTRICITY":"0.00020260"},{"ARG_OF_PERICENTER":"70.0635","EPHEMERIS_TYPE":"0","BSTAR":"0.00021941000000","MEAN_MOTION":"15.06399912","FILE":"3457577","APOAPSIS":"548.381","LAUNCH_DATE":"2020-01-29","OBJECT_NAME":"STARLINK-1150","RCS_SIZE":"LARGE","TLE_LINE1":"1 45067U 20006Z   22141.91194058  .00002988  00000-0  21941-3 0  9994","ECCENTRICITY":"0.00016860","SEMIMAJOR_AXIS":"6925.349","REF_FRAME":"TEME","GP_ID":"204189577","CLASSIFICATION_TYPE":"U","PERIOD":"95.592","OBJECT_ID":"2020-006Z","NORAD_CAT_ID":"45067","TIME_SYSTEM":"UTC","MEAN_MOTION_DOT":"0.00002988","CENTER_NAME":"EARTH","MEAN_ELEMENT_THEORY":"SGP4","ELEMENT_SET_NO":"999","SITE":"AFETR","MEAN_ANOMALY":"290.0536","DECAY_DATE":null,"REV_AT_EPOCH":"12757","INCLINATION":"53.0570","COUNTRY_CODE":"US","MEAN_MOTION_DDOT":"0.0000000000000","PERIAPSIS":"546.046","OBJECT_TYPE":"PAYLOAD","RA_OF_ASC_NODE":"16.5869","EPOCH":"2022-05-21T21:53:11.666112","TLE_LINE2":"2 45067  53.0570  16.5869 0001686  70.0635 290.0536 15.06399912127573"},{"MEAN_ANOMALY":"279.0318","SITE":"AFETR","ELEMENT_SET_NO":"999","MEAN_ELEMENT_THEORY":"SGP4","CENTER_NAME":"EARTH","MEAN_MOTION_DOT":"0.00000102","TLE_LINE2":"2 45068  53.0605  16.2811 0001433  81.0834 279.0318 15.06394158127572","EPOCH":"2022-05-21T22:50:13.751520","RA_OF_ASC_NODE":"16.2811","OBJECT_TYPE":"PAYLOAD","PERIAPSIS":"546.239","MEAN_MOTION_DDOT":"0.0000000000000","COUNTRY_CODE":"US","INCLINATION":"53.0605","REV_AT_EPOCH":"12757","DECAY_DATE":null,"TLE_LINE1":"1 45068U 20006AA  22141.95154805  .00000102  00000-0  25769-4 0  9994","OBJECT_NAME":"STARLINK-1161","RCS_SIZE":"LARGE","LAUNCH_DATE":"2020-01-29","APOAPSIS":"548.224","MEAN_MOTION":"15.06394158","FILE":"3457577","BSTAR":"0.00002576900000","EPHEMERIS_TYPE":"0","ARG_OF_PERICENTER":"81.0834","NORAD_CAT_ID":"45068","OBJECT_ID":"2020-006AA","TIME_SYSTEM":"UTC","CLASSIFICATION_TYPE":"U","PERIOD":"95.593","GP_ID":"204189827","REF_FRAME":"TEME","SEMIMAJOR_AXIS":"6925.366","ECCENTRICITY":"0.00014330"},{"BSTAR":"0.00010622000000","EPHEMERIS_TYPE":"0","ARG_OF_PERICENTER":"66.5320","LAUNCH_DATE":"2020-01-29","APOAPSIS":"548.300","FILE":"3457577","MEAN_MOTION":"15.06389338","TLE_LINE1":"1 45071U 20006AD  22141.94511491  .00001301  00000-0  10622-3 0  9998","OBJECT_NAME":"STARLINK-1167","RCS_SIZE":"LARGE","REF_FRAME":"TEME","SEMIMAJOR_AXIS":"6925.381","ECCENTRICITY":"0.00015210","GP_ID":"204191065","TIME_SYSTEM":"UTC","NORAD_CAT_ID":"45071","OBJECT_ID":"2020-006AD","CLASSIFICATION_TYPE":"U","PERIOD":"95.593","CENTER_NAME":"EARTH","MEAN_MOTION_DOT":"0.00001301","MEAN_ELEMENT_THEORY":"SGP4","ELEMENT_SET_NO":"999","MEAN_ANOMALY":"293.5829","SITE":"AFETR","COUNTRY_CODE":"US","INCLINATION":"53.0553","REV_AT_EPOCH":"12757","DECAY_DATE":null,"PERIAPSIS":"546.193","MEAN_MOTION_DDOT":"0.0000000000000","OBJECT_TYPE":"PAYLOAD","TLE_LINE2":"2 45071  53.0553  16.4576 0001521  66.5320 293.5829 15.06389338127576","EPOCH":"2022-05-21T22:40:57.928224","RA_OF_ASC_NODE":"16.4576"},{"CENTER_NAME":"EARTH","MEAN_MOTION_DOT":"0.00006920","MEAN_ELEMENT_THEORY":"SGP4","ELEMENT_SET_NO":"999","MEAN_ANOMALY":"302.7041","SITE":"AFETR","INCLINATION":"53.0572","COUNTRY_CODE":"US","DECAY_DATE":null,"REV_AT_EPOCH":"12757","MEAN_MOTION_DDOT":"0.0000000000000","PERIAPSIS":"546.018","OBJECT_TYPE":"PAYLOAD","TLE_LINE2":"2 45072  53.0572  16.4330 0001576  57.4100 302.7041 15.06433829127575","RA_OF_ASC_NODE":"16.4330","EPOCH":"2022-05-21T22:46:13.358208","EPHEMERIS_TYPE":"0","BSTAR":"0.00048254000000","ARG_OF_PERICENTER":"57.4100","LAUNCH_DATE":"2020-01-29","FILE":"3457577","MEAN_MOTION":"15.06433829","APOAPSIS":"548.201","TLE_LINE1":"1 45072U 20006AE  22141.94876572  .00006920  00000-0  48254-3 0  9997","RCS_SIZE":"LARGE","OBJECT_NAME":"STARLINK-1168","SEMIMAJOR_AXIS":"6925.245","REF_FRAME":"TEME","ECCENTRICITY":"0.00015760","GP_ID":"204190829","NORAD_CAT_ID":"45072","TIME_SYSTEM":"UTC","OBJECT_ID":"2020-006AE","CLASSIFICATION_TYPE":"U","PERIOD":"95.590"},{"CLASSIFICATION_TYPE":"U","PERIOD":"95.595","NORAD_CAT_ID":"45073","OBJECT_ID":"2020-006AF","TIME_SYSTEM":"UTC","GP_ID":"204190064","ECCENTRICITY":"0.00026010","SEMIMAJOR_AXIS":"6925.472","REF_FRAME":"TEME","OBJECT_NAME":"STARLINK-1170","RCS_SIZE":"LARGE","TLE_LINE1":"1 45073U 20006AF  22141.90825044  .00010861  00000-0  74769-3 0  9991","MEAN_MOTION":"15.06359766","FILE":"3457577","APOAPSIS":"549.138","LAUNCH_DATE":"2020-01-29","ARG_OF_PERICENTER":"49.8969","EPHEMERIS_TYPE":"0","BSTAR":"0.00074769000000","RA_OF_ASC_NODE":"16.6040","EPOCH":"2022-05-21T21:47:52.838016","TLE_LINE2":"2 45073  53.0578  16.6040 0002601  49.8969 310.2248 15.06359766127569","OBJECT_TYPE":"PAYLOAD","MEAN_MOTION_DDOT":"0.0000000000000","PERIAPSIS":"545.536","DECAY_DATE":null,"REV_AT_EPOCH":"12756","INCLINATION":"53.0578","COUNTRY_CODE":"US","SITE":"AFETR","MEAN_ANOMALY":"310.2248","ELEMENT_SET_NO":"999","MEAN_ELEMENT_THEORY":"SGP4","MEAN_MOTION_DOT":"0.00010861","CENTER_NAME":"EARTH"}];
